NORAD_CAT_ID,OBJECT_NAME,OBJECT_TYPE,EPOCH,MEAN_MOTION,ECCENTRICITY,INCLINATION,RA_OF_ASC_NODE,ARG_OF_PERICENTER,MEAN_ANOMALY,BSTAR,MEAN_MOTION_DOT,MEAN_MOTION_DDOT,TLE_LINE0,TLE_LINE1,TLE_LINE2,SEMIMAJOR_AXIS,PERIOD,APOGEE,PERIGEE,DECAYED
56811.0,STARLINK-6063,PAYLOAD,2024-03-14 00:39:26,14.98886502,0.0003722,69.9999,333.927,323.0636,37.0267,-0.0043927,-0.00052872,0.0,0 STARLINK-6063,1 56811U 23078AW  24074.02738634 -.00052872  00000-0 -43927-2 0  9994,2 56811  69.9999 333.9270 0003722 323.0636  37.0267 14.98886502 45238,6948.472,96.071,572.924,567.751,0.0
56811.0,STARLINK-6063,PAYLOAD,2024-03-14 03:51:52,14.98721666,0.0002245,70.0007,333.5902,300.5971,59.4966,-0.0067964,-0.0008107,0.0,0 STARLINK-6063,1 56811U 23078AW  24074.16102531 -.00081070  00000-0 -67964-2 0  9999,2 56811  70.0007 333.5902 0002245 300.5971  59.4966 14.98721666 45255,6948.982,96.082,572.407,569.287,0.0
56811.0,STARLINK-6063,PAYLOAD,2024-03-15 02:17:18,14.98692841,0.0003136,69.9988,331.2318,268.8603,91.2197,-0.0050517,-0.00060418,0.0,0 STARLINK-6063,1 56811U 23078AW  24075.09535150 -.00060418  00000-0 -50517-2 0  9998,2 56811  69.9988 331.2318 0003136 268.8603  91.2197 14.98692841 45391,6949.071,96.084,573.115,568.757,0.0
56811.0,STARLINK-6063,PAYLOAD,2024-03-15 16:42:23,14.98375483,0.000269,69.9993,329.7163,293.4987,66.589,-0.00072721,-8.769e-05,0.0,0 STARLINK-6063,1 56811U 23078AW  24075.69610226 -.00008769  00000-0 -72721-3 0  9995,2 56811  69.9993 329.7163 0002690 293.4987  66.5890 14.98375483 45485,6950.052,96.104,573.787,570.048,0.0
56811.0,STARLINK-6063,PAYLOAD,2024-03-16 04:00:00,14.98317535,0.000304,70.0002,328.5302,272.7264,104.9682,0.0014703,0.00017489,0.0,0 STARLINK-6063,1 56811U 23078AW  24076.16667824  .00017489  00000-0  14703-2 0  9996,2 56811  70.0002 328.5302 0003040 272.7264 104.9682 14.98317535 45557,6950.231,96.108,574.209,569.984,0.0
56811.0,STARLINK-6063,PAYLOAD,2024-03-16 14:00:01,14.9829311,0.0003065,70.0002,327.4796,264.9048,199.6402,0.0063187,0.00076052,0.0,0 STARLINK-6063,1 56811U 23078AW  24076.58334491  .00076052  00000-0  63187-2 0  9994,2 56811  70.0002 327.4796 0003065 264.9048 199.6402 14.98293110  5764,6950.307,96.109,574.302,570.042,0.0
56811.0,STARLINK-6063,PAYLOAD,2024-03-16 20:00:01,14.98356718,0.0003076,70.0005,326.8491,266.7026,105.9321,-0.0032362,-0.00038522,0.0,0 STARLINK-6063,1 56811U 23078AW  24076.83334491 -.00038522  00000-0 -32362-2 0  9995,2 56811  70.0005 326.8491 0003076 266.7026 105.9321 14.98356718 45656,6950.11,96.105,574.113,569.837,0.0
56811.0,STARLINK-6063,PAYLOAD,2024-03-16 22:00:00,14.98346887,0.0003065,70.0004,326.639,268.4934,193.5203,-0.0025564,-0.00030477,0.0,0 STARLINK-6063,1 56811U 23078AW  24076.91667824 -.00030477  00000-0 -25564-2 0  9990,2 56811  70.0004 326.6390 0003065 268.4934 193.5203 14.98346887  5829,6950.141,96.106,574.136,569.875,0.0
56811.0,STARLINK-6063,PAYLOAD,2024-03-17 12:00:00,14.98297282,0.0003078,70.0004,325.1679,266.4478,101.1814,0.0053314,0.00064051,0.0,0 STARLINK-6063,1 56811U 23078AW  24077.50001157  .00064051  00000-0  53314-2 0  9994,2 56811  70.0004 325.1679 0003078 266.4478 101.1814 14.98297282 45751,6950.294,96.109,574.298,570.02,0.0
56811.0,STARLINK-6063,PAYLOAD,2024-03-17 14:00:01,14.98299865,0.0003106,70.0004,324.9578,265.5745,191.42,0.0060995,0.00073396,0.0,0 STARLINK-6063,1 56811U 23078AW  24077.58334491  .00073396  00000-0  60995-2 0  9997,2 56811  70.0004 324.9578 0003106 265.5745 191.4200 14.98299865  5818,6950.286,96.109,574.31,569.992,0.0
56811.0,STARLINK-6063,PAYLOAD,2024-03-17 22:00:00,14.98354029,0.0003095,70.0005,324.1174,270.0624,184.4121,-0.0030681,-0.00036534,0.0,0 STARLINK-6063,1 56811U 23078AW  24077.91667824 -.00036534  00000-0 -30681-2 0  9997,2 56811  70.0005 324.1174 0003095 270.0624 184.4121 14.98354029  5860,6950.119,96.105,574.135,569.833,0.0
56811.0,STARLINK-6063,PAYLOAD,2024-03-18 02:23:12,14.98332495,0.0002779,69.9992,323.6568,266.9074,93.1767,4.0099e-05,3.86e-06,0.0,0 STARLINK-6063,1 56811U 23078AW  24078.09945056  .00000386  00000-0  40099-4 0  9993,2 56811  69.9992 323.6568 0002779 266.9074  93.1767 14.98332495 45841,6950.185,96.107,573.982,570.119,0.0
56811.0,STARLINK-6063,PAYLOAD,2024-03-18 15:12:17,14.98328971,0.0002781,69.9991,322.3108,266.3443,93.7398,5.3148e-06,-3e-07,0.0,0 STARLINK-6063,1 56811U 23078AW  24078.63353348 -.00000030  00000-0  53148-5 0  9997,2 56811  69.9991 322.3108 0002781 266.3443  93.7398 14.98328971 45663,6950.196,96.107,573.994,570.128,0.0
56811.0,STARLINK-6063,PAYLOAD,2024-03-18 21:36:49,14.98325773,0.0002617,69.9992,321.637,266.4237,93.6623,5.618e-05,5.77e-06,0.0,0 STARLINK-6063,1 56811U 23078AW  24078.90057432  .00000577  00000-0  56180-4 0  9995,2 56811  69.9992 321.6370 0002617 266.4237  93.6623 14.98325773 45709,6950.206,96.107,573.89,570.252,0.0
56811.0,STARLINK-6063,PAYLOAD,2024-03-19 02:25:13,14.98331215,0.000275,69.999,321.1325,265.8785,94.2059,2.9379e-05,2.58e-06,0.0,0 STARLINK-6063,1 56811U 23078AW  24079.10085111  .00000258  00000-0  29379-4 0  9999,2 56811  69.9990 321.1325 0002750 265.8785  94.2059 14.98331215 45990,6950.189,96.107,573.965,570.143,0.0
56811.0,STARLINK-6063,PAYLOAD,2024-03-19 21:38:49,14.98338734,0.0002673,69.999,319.1121,262.0398,98.0458,6.5195e-05,6.85e-06,0.0,0 STARLINK-6063,1 56811U 23078AW  24079.90196210  .00000685  00000-0  65195-4 0  9990,2 56811  69.9990 319.1121 0002673 262.0398  98.0458 14.98338734 46117,6950.166,96.106,573.889,570.173,0.0
56811.0,STARLINK-6063,PAYLOAD,2024-03-20 13:40:11,14.98323458,0.0003357,69.9988,317.4286,251.4644,108.6151,-8.3816e-05,-1.093e-05,0.0,0 STARLINK-6063,1 56811U 23078AW  24080.56957192 -.00001093  00000-0 -83816-4 0  9994,2 56811  69.9988 317.4286 0003357 251.4644 108.6151 14.98323458 45959,6950.213,96.107,574.411,569.745,0.0
56811.0,STARLINK-6063,PAYLOAD,2024-03-20 20:04:43,14.98320444,0.0003247,69.9982,316.755,271.8203,88.2584,-0.00012712,-1.609e-05,0.0,0 STARLINK-6063,1 56811U 23078AW  24080.83661846 -.00001609  00000-0 -12712-3 0  9991,2 56811  69.9982 316.7550 0003247 271.8203  88.2584 14.98320444 46253,6950.222,96.108,574.344,569.831,0.0
56811.0,STARLINK-6063,PAYLOAD,2024-03-20 21:40:51,14.98321922,0.000331,69.9977,316.586,265.511,94.5671,-0.00014019,-1.765e-05,0.0,0 STARLINK-6063,1 56811U 23078AW  24080.90337750 -.00001765  00000-0 -14019-3 0  9998,2 56811  69.9977 316.5860 0003310 265.5110  94.5671 14.98321922 46009,6950.218,96.108,574.383,569.782,0.0
56811.0,STARLINK-6063,PAYLOAD,2024-03-21 08:53:47,14.9832797,0.0003273,69.9977,315.4072,266.2601,93.8183,-6.375e-05,-8.54e-06,0.0,0 STARLINK-6063,1 56811U 23078AW  24081.37069293 -.00000854  00000-0 -63750-4 0  9999,2 56811  69.9977 315.4072 0003273 266.2601  93.8183 14.98327970 46338,6950.199,96.107,574.339,569.789,0.0
56811.0,STARLINK-6063,PAYLOAD,2024-03-21 21:42:51,14.983354,0.0003249,69.9975,314.0605,268.7587,91.32,-4.3989e-05,-6.18e-06,0.0,0 STARLINK-6063,1 56811U 23078AW  24081.90476782 -.00000618  00000-0 -43989-4 0  9993,2 56811  69.9975 314.0605 0003249 268.7587  91.3200 14.98335400 46156,6950.176,96.107,574.299,569.783,0.0
56811.0,STARLINK-6063,PAYLOAD,2024-03-22 00:55:08,14.98323377,0.0002877,69.9985,313.7246,251.7363,108.3483,-0.00017323,-2.159e-05,0.0,0 STARLINK-6063,1 56811U 23078AW  24082.03829714 -.00002159  00000-0 -17323-3 0  9999,2 56811  69.9985 313.7246 0002877 251.7363 108.3483 14.98323377 46178,6950.213,96.107,574.078,570.079,0.0
56811.0,STARLINK-6063,PAYLOAD,2024-03-22 20:09:28,14.97868756,0.0003709,69.9973,311.7053,281.0505,79.0236,-0.0045358,-0.00053171,0.0,0 STARLINK-6063,1 56811U 23078AW  24082.83991102 -.00053171  00000-0 -45358-2 0  9996,2 56811  69.9973 311.7053 0003709 281.0505  79.0236 14.97868756 46554,6951.62,96.137,576.063,570.906,0.0
56811.0,STARLINK-6063,PAYLOAD,2024-03-22 21:45:38,14.97861627,0.0003969,69.9975,311.5382,284.4057,75.6661,-0.0045276,-0.00053068,0.0,0 STARLINK-6063,1 56811U 23078AW  24082.90669530 -.00053068  00000-0 -45276-2 0  9995,2 56811  69.9975 311.5382 0003969 284.4057  75.6661 14.97861627 46303,6951.642,96.137,576.266,570.748,0.0
56811.0,STARLINK-6063,PAYLOAD,2024-03-23 00:58:07,14.97732577,0.00036,69.9974,311.2019,270.4455,89.6291,-0.0058275,-0.00067905,0.0,0 STARLINK-6063,1 56811U 23078AW  24083.04036485 -.00067905  00000-0 -58275-2 0  9996,2 56811  69.9974 311.2019 0003600 270.4455  89.6291 14.97732577 46580,6952.041,96.145,576.409,571.403,0.0
56811.0,STARLINK-6063,PAYLOAD,2024-03-23 08:59:09,14.97600408,0.0003158,69.9974,310.3589,275.3029,84.7769,-0.0068387,-0.00079269,0.0,0 STARLINK-6063,1 56811U 23078AW  24083.37441131 -.00079269  00000-0 -68387-2 0  9991,2 56811  69.9974 310.3589 0003158 275.3029  84.7769 14.97600408 46630,6952.45,96.154,576.511,572.119,0.0
56811.0,STARLINK-6063,PAYLOAD,2024-03-23 20:00:01,14.96722738,0.0003628,69.9995,309.2076,269.6857,44.0691,-0.0021596,-0.00024728,0.0,0 STARLINK-6063,1 56811U 23078AW  24083.83334491 -.00024728  00000-0 -21596-2 0  9993,2 56811  69.9995 309.2076 0003628 269.6857  44.0691 14.96722738 46709,6955.168,96.21,579.556,574.509,0.0
56811.0,STARLINK-6063,PAYLOAD,2024-03-23 22:00:00,14.96706766,0.0003588,69.9994,308.9981,271.2612,131.385,0.00051962,5.86e-05,0.0,0 STARLINK-6063,1 56811U 23078AW  24083.91667824  .00005860  00000-0  51962-3 0  9996,2 56811  69.9994 308.9981 0003588 271.2612 131.3850 14.96706766  5763,6955.217,96.211,579.578,574.587,0.0
56811.0,STARLINK-6063,PAYLOAD,2024-03-24 12:00:00,14.96680186,0.0003436,69.9991,307.5307,267.1748,37.6833,0.0077349,0.00089504,0.0,0 STARLINK-6063,1 56811U 23078AW  24084.50001157  .00089504  00000-0  77349-2 0  9996,2 56811  69.9991 307.5307 0003436 267.1748  37.6833 14.96680186 46809,6955.299,96.213,579.554,574.775,0.0
56811.0,STARLINK-6063,PAYLOAD,2024-03-24 14:00:01,14.96707731,0.0003436,69.9993,307.3212,266.9564,126.7776,0.0046931,0.00054032,0.0,0 STARLINK-6063,1 56811U 23078AW  24084.58334491  .00054032  00000-0  46931-2 0  9995,2 56811  69.9993 307.3212 0003436 266.9564 126.7776 14.96707731  5871,6955.214,96.211,579.469,574.689,0.0
